NORAD_CAT_ID,OBJECT_NAME,OBJECT_TYPE,EPOCH,MEAN_MOTION,ECCENTRICITY,INCLINATION,RA_OF_ASC_NODE,ARG_OF_PERICENTER,MEAN_ANOMALY,BSTAR,MEAN_MOTION_DOT,MEAN_MOTION_DDOT,TLE_LINE0,TLE_LINE1,TLE_LINE2,SEMIMAJOR_AXIS,PERIOD,APOGEE,PERIGEE,DECAYED
52872.0,STARLINK-4213,PAYLOAD,2023-12-30 07:44:32,15.08839481,0.0001557,53.2184,7.0847,97.3097,262.8073,0.00011337,1.517e-05,0.0,0 STARLINK-4213,1 52872U 22062AU  23364.32259756  .00001517  00000-0  11337-3 0  9995,2 52872  53.2184   7.0847 0001557  97.3097 262.8073 15.08839481 85725,6917.882,95.438,540.824,538.67,0.0
52872.0,STARLINK-4213,PAYLOAD,2023-12-30 23:38:24,15.08836329,0.0001466,53.2186,4.1141,80.8126,279.3031,6.3552e-05,7.24e-06,0.0,0 STARLINK-4213,1 52872U 22062AU  23364.98500320  .00000724  00000-0  63552-4 0  9999,2 52872  53.2186   4.1141 0001466  80.8126 279.3031 15.08836329 85827,6917.892,95.438,540.771,538.742,0.0
52872.0,STARLINK-4213,PAYLOAD,2023-12-31 09:10:43,15.08838446,0.0001509,53.2183,2.3256,79.6655,280.4507,7.4769e-05,9.02e-06,0.0,0 STARLINK-4213,1 52872U 22062AU  23365.38244258  .00000902  00000-0  74769-4 0  9999,2 52872  53.2183   2.3256 0001509  79.6655 280.4507 15.08838446 85397,6917.885,95.438,540.794,538.706,0.0
52872.0,STARLINK-4213,PAYLOAD,2024-01-01 04:15:20,15.08841548,0.0001548,53.2183,358.7569,78.402,281.7146,4.1846e-05,3.78e-06,0.0,0 STARLINK-4213,1 52872U 22062AU  24001.17732149  .00000378  00000-0  41846-4 0  9992,2 52872  53.2183 358.7569 0001548  78.4020 281.7146 15.08841548 86007,6917.876,95.437,540.812,538.67,0.0
52872.0,STARLINK-4213,PAYLOAD,2024-01-01 07:26:06,15.0884623,0.0001591,53.2184,358.1622,79.3107,280.8064,8.0763e-05,9.98e-06,0.0,0 STARLINK-4213,1 52872U 22062AU  24001.30979763  .00000998  00000-0  80763-4 0  9991,2 52872  53.2184 358.1622 0001591  79.3107 280.8064 15.08846230 85535,6917.861,95.437,540.827,538.626,0.0
52872.0,STARLINK-4213,PAYLOAD,2024-01-02 05:41:30,15.08840948,0.0001522,53.2182,353.9972,89.3733,270.7434,6.3317e-05,7.2e-06,0.0,0 STARLINK-4213,1 52872U 22062AU  24002.23716002  .00000720  00000-0  63317-4 0  9998,2 52872  53.2182 353.9972 0001522  89.3733 270.7434 15.08840948 86163,6917.877,95.437,540.795,538.69,0.0
52872.0,STARLINK-4213,PAYLOAD,2024-01-03 08:43:03,15.08850461,0.0001656,53.2185,348.9424,103.3332,256.7845,2.1684e-05,5.7e-07,0.0,0 STARLINK-4213,1 52872U 22062AU  24003.36323273  .00000057  00000-0  21684-4 0  9991,2 52872  53.2185 348.9424 0001656 103.3332 256.7845 15.08850461 86332,6917.848,95.437,540.859,538.568,0.0
52872.0,STARLINK-4213,PAYLOAD,2024-01-04 03:47:41,15.08836648,0.0001462,53.218,345.3737,94.7463,265.3696,8.4273e-06,-1.54e-06,0.0,0 STARLINK-4213,1 52872U 22062AU  24004.15812357 -.00000154  00000-0  84273-5 0  9998,2 52872  53.2180 345.3737 0001462  94.7463 265.3696 15.08836648 86452,6917.891,95.438,540.767,538.744,0.0
52872.0,STARLINK-4213,PAYLOAD,2024-01-04 05:23:04,15.08837584,0.0001488,53.2181,345.077,99.2645,260.8516,1.6156e-05,-3.1e-07,0.0,0 STARLINK-4213,1 52872U 22062AU  24004.22436260 -.00000031  00000-0  16156-4 0  9999,2 52872  53.2181 345.0770 0001488  99.2645 260.8516 15.08837584 85974,6917.888,95.438,540.782,538.723,0.0
52872.0,STARLINK-4213,PAYLOAD,2024-01-04 22:52:19,15.08839653,0.0001463,53.2185,341.8059,95.3645,264.7514,1.8993e-05,1.4e-07,0.0,0 STARLINK-4213,1 52872U 22062AU  24004.95300224  .00000014  00000-0  18993-4 0  9990,2 52872  53.2185 341.8059 0001463  95.3645 264.7514 15.08839653 86085,6917.881,95.438,540.759,538.734,0.0
52872.0,STARLINK-4213,PAYLOAD,2024-01-05 05:13:51,15.08846317,0.000147,53.2182,340.6166,100.355,259.7607,7.4931e-05,9.05e-06,0.0,0 STARLINK-4213,1 52872U 22062AU  24005.21795635  .00000905  00000-0  74931-4 0  9997,2 52872  53.2182 340.6166 0001470 100.3550 259.7607 15.08846317 86619,6917.861,95.437,540.743,538.709,0.0
52872.0,STARLINK-4213,PAYLOAD,2024-01-05 08:24:37,15.08846975,0.0001468,53.2182,340.0213,100.4162,259.6995,8.2371e-05,1.023e-05,0.0,0 STARLINK-4213,1 52872U 22062AU  24005.35043546  .00001023  00000-0  82371-4 0  9998,2 52872  53.2182 340.0213 0001468 100.4162 259.6995 15.08846975 86140,6917.859,95.437,540.74,538.709,0.0
52872.0,STARLINK-4213,PAYLOAD,2024-01-05 22:43:06,15.0883284,0.0001486,53.2181,337.3423,97.697,262.4191,4.3272e-05,4.01e-06,0.0,0 STARLINK-4213,1 52872U 22062AU  24005.94660696  .00000401  00000-0  43272-4 0  9990,2 52872  53.2181 337.3423 0001486  97.6970 262.4191 15.08832840 86231,6917.902,95.438,540.795,538.739,0.0
52872.0,STARLINK-4213,PAYLOAD,2024-01-06 03:29:15,15.08843868,0.0001449,53.218,336.45,94.2111,265.9046,-6.4304e-05,-1.311e-05,0.0,0 STARLINK-4213,1 52872U 22062AU  24006.14532395 -.00001311  00000-0 -64304-4 0  9999,2 52872  53.2180 336.4500 0001449  94.2111 265.9046 15.08843868 86751,6917.869,95.437,540.736,538.731,0.0
52872.0,STARLINK-4213,PAYLOAD,2024-01-06 06:40:02,15.08838008,0.000148,53.2183,335.8555,90.7737,269.3425,6.55e-05,7.55e-06,0.0,0 STARLINK-4213,1 52872U 22062AU  24006.27780437  .00000755  00000-0  65500-4 0  9993,2 52872  53.2183 335.8555 0001480  90.7737 269.3425 15.08838008 86284,6917.886,95.438,540.775,538.728,0.0
52872.0,STARLINK-4213,PAYLOAD,2024-01-07 04:55:25,15.08847395,0.0001473,53.2187,331.6921,88.0454,272.0706,4.4136e-05,4.15e-06,0.0,0 STARLINK-4213,1 52872U 22062AU  24007.20516089  .00000415  00000-0  44136-4 0  9992,2 52872  53.2187 331.6921 0001473  88.0454 272.0706 15.08847395 86919,6917.858,95.437,540.742,538.704,0.0
52872.0,STARLINK-4213,PAYLOAD,2024-01-07 06:30:48,15.08863005,0.0001428,53.2187,331.3944,88.1114,272.0042,-0.00012683,-2.307e-05,0.0,0 STARLINK-4213,1 52872U 22062AU  24007.27139475 -.00002307  00000-0 -12683-3 0  9994,2 52872  53.2187 331.3944 0001428  88.1114 272.0042 15.08863005 86925,6917.81,95.436,540.663,538.687,0.0
52872.0,STARLINK-4213,PAYLOAD,2024-01-08 03:10:50,15.08836017,0.0001535,53.2184,327.5314,90.1611,269.9557,4.3683e-05,4.07e-06,0.0,0 STARLINK-4213,1 52872U 22062AU  24008.13252892  .00000407  00000-0  43683-4 0  9991,2 52872  53.2184 327.5314 0001535  90.1611 269.9557 15.08836017 87058,6917.893,95.438,540.819,538.696,0.0
52872.0,STARLINK-4213,PAYLOAD,2024-01-08 04:46:13,15.0884065,0.0001469,53.2184,327.2349,90.2542,269.8618,7.6434e-05,9.29e-06,0.0,0 STARLINK-4213,1 52872U 22062AU  24008.19876550  .00000929  00000-0  76434-4 0  9999,2 52872  53.2184 327.2349 0001469  90.2542 269.8618 15.08840650 86574,6917.878,95.438,540.76,538.727,0.0
52872.0,STARLINK-4213,PAYLOAD,2024-01-09 04:37:00,15.08843468,0.0002156,53.2207,322.7709,57.1759,302.944,4.3035e-05,3.97e-06,0.0,0 STARLINK-4213,1 52872U 22062AU  24009.19236829  .00000397  00000-0  43035-4 0  9999,2 52872  53.2207 322.7709 0002156  57.1759 302.9440 15.08843468 87210,6917.87,95.437,541.226,538.243,0.0
52872.0,STARLINK-4213,PAYLOAD,2024-01-09 06:12:23,15.08845881,0.0002105,53.2201,322.4726,59.3701,300.7498,3.8642e-05,3.27e-06,0.0,0 STARLINK-4213,1 52872U 22062AU  24009.25860642  .00000327  00000-0  38642-4 0  9993,2 52872  53.2201 322.4726 0002105  59.3701 300.7498 15.08845881 86731,6917.862,95.437,541.184,538.271,0.0
52872.0,STARLINK-4213,PAYLOAD,2024-01-10 02:52:23,15.08851259,0.0001776,53.2192,318.6082,68.7388,291.3793,0.00015081,2.114e-05,0.0,0 STARLINK-4213,1 52872U 22062AU  24010.11971938  .00002114  00000-0  15081-3 0  9998,2 52872  53.2192 318.6082 0001776  68.7388 291.3793 15.08851259 87358,6917.846,95.437,540.94,538.482,0.0
52872.0,STARLINK-4213,PAYLOAD,2024-01-11 02:43:10,15.08850608,0.0001268,53.2174,314.1513,91.3828,268.731,6.0331e-05,6.73e-06,0.0,0 STARLINK-4213,1 52872U 22062AU  24011.11332081  .00000673  00000-0  60331-4 0  9996,2 52872  53.2174 314.1513 0001268  91.3828 268.7310 15.08850608 87502,6917.848,95.437,540.59,538.836,0.0
52872.0,STARLINK-4213,PAYLOAD,2024-01-11 05:53:56,15.08851822,0.0001394,53.2179,313.5549,90.9362,269.1789,0.00010941,1.454e-05,0.0,0 STARLINK-4213,1 52872U 22062AU  24011.24579860  .00001454  00000-0  10941-3 0  9997,2 52872  53.2179 313.5549 0001394  90.9362 269.1789 15.08851822 87039,6917.844,95.437,540.674,538.745,0.0
52872.0,STARLINK-4213,PAYLOAD,2024-01-11 20:12:26,15.08841178,0.0001351,53.2186,310.8729,106.6692,253.4448,-4.7319e-05,-1.041e-05,0.0,0 STARLINK-4213,1 52872U 22062AU  24011.84196895 -.00001041  00000-0 -47319-4 0  9990,2 52872  53.2186 310.8729 0001351 106.6692 253.4448 15.08841178 87616,6917.877,95.437,540.676,538.807,0.0
52872.0,STARLINK-4213,PAYLOAD,2024-01-12 00:58:35,15.08841596,0.0001498,53.2178,309.9885,88.794,271.3224,-4.3447e-05,-9.79e-06,0.0,0 STARLINK-4213,1 52872U 22062AU  24012.04068684 -.00000979  00000-0 -43447-4 0  9994,2 52872  53.2178 309.9885 0001498  88.7940 271.3224 15.08841596 87151,6917.876,95.437,540.777,538.704,0.0
52872.0,STARLINK-4213,PAYLOAD,2024-01-12 20:03:13,15.08836285,0.0001262,53.217,306.4196,90.9501,269.1635,-1.1485e-06,-3.06e-06,0.0,0 STARLINK-4213,1 52872U 22062AU  24012.83557222 -.00000306  00000-0 -11485-5 0  9994,2 52872  53.2170 306.4196 0001262  90.9501 269.1635 15.08836285 87270,6917.892,95.438,540.63,538.884,0.0
52872.0,STARLINK-4213,PAYLOAD,2024-01-13 00:49:22,15.08842402,0.0001287,53.2174,305.5282,89.136,270.978,7.9726e-05,9.81e-06,0.0,0 STARLINK-4213,1 52872U 22062AU  24013.03428956  .00000981  00000-0  79726-4 0  9996,2 52872  53.2174 305.5282 0001287  89.1360 270.9780 15.08842402 87796,6917.873,95.437,540.628,538.848,0.0
52872.0,STARLINK-4213,PAYLOAD,2024-01-13 18:18:37,15.0883541,0.0001279,53.2178,302.2626,75.7012,284.4122,0.00031558,4.737e-05,0.0,0 STARLINK-4213,1 52872U 22062AU  24013.76293654  .00004737  00000-0  31558-3 0  9994,2 52872  53.2178 302.2626 0001279  75.7012 284.4122 15.08835410 87906,6917.894,95.438,540.644,538.875,0.0
52872.0,STARLINK-4213,PAYLOAD,2024-01-14 03:50:56,15.08841178,0.0001397,53.2181,300.4773,81.4651,278.65,0.00018661,2.683e-05,0.0,0 STARLINK-4213,1 52872U 22062AU  24014.16037435  .00002683  00000-0  18661-3 0  9990,2 52872  53.2181 300.4773 0001397  81.4651 278.6500 15.08841178 87472,6917.877,95.437,540.708,538.775,0.0
